{"type":"FeatureCollection","source":"geoBoundaries RWA ADM2 (open, CC-BY 4.0)","source_url":"https://github.com/wmgeolab/geoBoundaries/raw/9469f09/releaseData/gbOpen/RWA/ADM2/geoBoundaries-RWA-ADM2.geojson","properties":{"layer":"rwanda_districts","simplification_tolerance_deg":0.004},"features":[{"type":"Feature","properties":{"district":"Nyarugenge","district_code":"RW-KG-NYA","province":"Kigali City","agro_ecological_zone":"Urban/Peri-urban"},"geometry":{"type":"Polygon","coordinates":[[[30.0769,-1.9548],[30.0732,-1.9437],[30.0591,-1.9337],[30.034,-1.943],[30.022,-1.9186],[30.0142,-1.9205],[30.0196,-1.9139],[29.9954,-1.8935],[29.9894,-1.8668],[29.98,-1.8714],[29.978,-1.8907],[29.9925,-1.9074],[29.9828,-1.9134],[29.9855,-1.9292],[29.9987,-1.9406],[29.9987,-1.9569],[30.0034,-1.9555],[30.0037,-1.9697],[29.9981,-1.9712],[30.0023,-1.9834],[29.9957,-1.9837],[29.993,-1.9932],[30.0155,-2.0128],[30.0058,-2.0198],[30.0089,-2.0281],[29.9974,-2.03],[29.9834,-2.0437],[29.9837,-2.0578],[29.994,-2.0683],[30.015,-2.0702],[30.0163,-2.0758],[30.0276,-2.0697],[30.0272,-2.0639],[30.0394,-2.0689],[30.0385,-2.0592],[30.0474,-2.0546],[30.058,-2.0558],[30.0545,-2.0645],[30.0646,-2.0711],[30.0868,-2.0625],[30.0728,-2.0212],[30.0653,-2.017],[30.0644,-2.0079],[30.0485,-2.0021],[30.0488,-1.9925],[30.0769,-1.9548]]]}},{"type":"Feature","properties":{"district":"Gasabo","district_code":"RW-KG-GAS","province":"Kigali City","agro_ecological_zone":"Urban/Peri-urban"},"geometry":{"type":"Polygon","coordinates":[[[30.0769,-1.9548],[30.0834,-1.9639],[30.1008,-1.9689],[30.1387,-1.9528],[30.1496,-1.9555],[30.1809,-1.973],[30.1842,-1.9874],[30.2359,-1.9812],[30.234,-1.9615],[30.2541,-1.9514],[30.2652,-1.9534],[30.277,-1.9353],[30.2729,-1.9001],[30.2581,-1.8944],[30.2582,-1.8757],[30.2652,-1.8649],[30.2476,-1.8574],[30.2478,-1.8457],[30.2174,-1.8408],[30.1726,-1.7972],[30.1618,-1.79],[30.1479,-1.7927],[30.1387,-1.7796],[30.1186,-1.8193],[30.0995,-1.8127],[30.0947,-1.8206],[30.0635,-1.8288],[30.057,-1.8443],[30.0294,-1.8652],[30.0158,-1.8363],[29.9988,-1.8416],[29.9911,-1.8475],[29.9891,-1.8659],[29.9959,-1.8941],[30.0196,-1.9139],[30.0142,-1.9205],[30.022,-1.9186],[30.034,-1.943],[30.0591,-1.9337],[30.0732,-1.9437],[30.0769,-1.9548]]]}},{"type":"Feature","properties":{"district":"Kicukiro","district_code":"RW-KG-KIC","province":"Kigali City","agro_ecological_zone":"Urban/Peri-urban"},"geometry":{"type":"Polygon","coordinates":[[[30.0868,-2.0625],[30.0962,-2.0645],[30.1017,-2.0559],[30.1137,-2.0603],[30.1182,-2.0547],[30.1193,-2.0596],[30.1257,-2.0554],[30.1236,-2.0496],[30.1279,-2.0528],[30.1329,-2.0439],[30.1371,-2.0461],[30.1372,-2.0395],[30.1472,-2.0409],[30.158,-2.0308],[30.1656,-2.0339],[30.173,-2.0283],[30.1897,-2.0426],[30.1927,-2.0605],[30.1991,-2.057],[30.2084,-2.0798],[30.2223,-2.0715],[30.2366,-1.9824],[30.1842,-1.9874],[30.1809,-1.973],[30.1496,-1.9555],[30.1387,-1.9528],[30.1008,-1.9689],[30.0751,-1.9552],[30.0488,-1.9925],[30.0485,-2.0028],[30.0644,-2.0079],[30.0868,-2.0625]]]}},{"type":"Feature","properties":{"district":"Nyanza","district_code":"RW-SO-NYA","province":"Southern","agro_ecological_zone":"Central Plateau"},"geometry":{"type":"Polygon","coordinates":[[[29.9835,-2.2327],[29.9459,-2.2317],[29.9223,-2.2399],[29.9029,-2.2341],[29.8989,-2.2467],[29.9072,-2.2494],[29.9159,-2.2781],[29.9081,-2.2842],[29.8861,-2.2773],[29.8537,-2.2865],[29.8188,-2.2594],[29.8004,-2.2642],[29.7937,-2.2811],[29.7806,-2.2802],[29.7531,-2.2581],[29.7415,-2.2404],[29.7373,-2.248],[29.7135,-2.2417],[29.7096,-2.2475],[29.6935,-2.2452],[29.6956,-2.2676],[29.6799,-2.2728],[29.6592,-2.2508],[29.647,-2.262],[29.6366,-2.2518],[29.6288,-2.2634],[29.6011,-2.2529],[29.5955,-2.2572],[29.6029,-2.2752],[29.6173,-2.2891],[29.6119,-2.3041],[29.5909,-2.3204],[29.5892,-2.3307],[29.5822,-2.3312],[29.5831,-2.3476],[29.6016,-2.3717],[29.6238,-2.3544],[29.6226,-2.3671],[29.6415,-2.4096],[29.6653,-2.4184],[29.6776,-2.41],[29.6835,-2.392],[29.692,-2.3928],[29.6999,-2.406],[29.7201,-2.4003],[29.7333,-2.4032],[29.7385,-2.3938],[29.762,-2.3875],[29.7913,-2.3686],[29.8141,-2.395],[29.8341,-2.4048],[29.8354,-2.4184],[29.8282,-2.416],[29.8165,-2.4234],[29.8184,-2.4421],[29.8271,-2.4501],[29.8524,-2.4558],[29.9026,-2.4473],[29.9297,-2.4363],[29.9556,-2.3969],[29.9444,-2.3667],[29.9575,-2.349],[29.9562,-2.3304],[29.9662,-2.3176],[29.9615,-2.2902],[29.9735,-2.2744],[29.9835,-2.2327]]]}},{"type":"Feature","properties":{"district":"Gisagara","district_code":"RW-SO-GIS","province":"Southern","agro_ecological_zone":"Central Plateau"},"geometry":{"type":"Polygon","coordinates":[[[29.846,-2.4536],[29.8043,-2.4899],[29.804,-2.5064],[29.7863,-2.506],[29.7861,-2.5172],[29.7631,-2.5349],[29.7679,-2.5547],[29.76,-2.5708],[29.7575,-2.5994],[29.7733,-2.6235],[29.7667,-2.6707],[29.7461,-2.6967],[29.7438,-2.7113],[29.7234,-2.7326],[29.7121,-2.773],[29.7018,-2.7853],[29.698,-2.7984],[29.7082,-2.82],[29.7451,-2.8079],[29.754,-2.8116],[29.7727,-2.7661],[29.8072,-2.7608],[29.8137,-2.7748],[29.8321,-2.7822],[29.84,-2.7696],[29.8784,-2.7607],[29.8797,-2.7527],[29.894,-2.7472],[29.8944,-2.7352],[29.9189,-2.7028],[29.9367,-2.6416],[29.9289,-2.633],[29.9321,-2.5903],[29.9212,-2.5589],[29.9345,-2.5347],[29.9432,-2.4991],[29.9684,-2.4848],[29.9709,-2.4614],[29.9627,-2.4143],[29.9556,-2.3969],[29.9246,-2.4402],[29.8841,-2.452],[29.846,-2.4536]]]}},{"type":"Feature","properties":{"district":"Nyaruguru","district_code":"RW-SO-NYR","province":"Southern","agro_ecological_zone":"Highland (Congo-Nile)"},"geometry":{"type":"Polygon","coordinates":[[[29.7469,-2.6957],[29.7245,-2.6799],[29.7041,-2.6832],[29.6827,-2.6741],[29.6687,-2.657],[29.67,-2.6419],[29.6414,-2.6548],[29.6366,-2.6326],[29.6079,-2.6256],[29.6137,-2.6136],[29.6093,-2.6028],[29.6185,-2.5879],[29.6028,-2.5571],[29.5666,-2.5454],[29.5582,-2.5479],[29.5404,-2.5325],[29.5188,-2.5521],[29.499,-2.5564],[29.4919,-2.5687],[29.4797,-2.573],[29.486,-2.5836],[29.474,-2.5902],[29.4614,-2.5879],[29.456,-2.6],[29.4457,-2.5947],[29.4434,-2.5816],[29.4283,-2.5773],[29.4223,-2.5596],[29.3989,-2.5537],[29.3631,-2.5548],[29.3611,-2.5699],[29.3398,-2.5807],[29.3443,-2.5962],[29.3536,-2.597],[29.3679,-2.6314],[29.3571,-2.6453],[29.3491,-2.6767],[29.3291,-2.6826],[29.3281,-2.6903],[29.3434,-2.7016],[29.3548,-2.7307],[29.3331,-2.7471],[29.3408,-2.7532],[29.3382,-2.7646],[29.3505,-2.7689],[29.348,-2.7771],[29.3567,-2.7921],[29.3516,-2.8039],[29.3616,-2.8185],[29.3617,-2.8329],[29.3706,-2.8401],[29.3898,-2.819],[29.4004,-2.8223],[29.4381,-2.7981],[29.4568,-2.801],[29.4634,-2.81],[29.486,-2.8026],[29.5214,-2.8303],[29.5425,-2.8302],[29.5435,-2.8177],[29.574,-2.8122],[29.5886,-2.8032],[29.5915,-2.8085],[29.6162,-2.8106],[29.6482,-2.7877],[29.6691,-2.792],[29.7009,-2.8109],[29.7018,-2.7853],[29.7121,-2.773],[29.7234,-2.7326],[29.7438,-2.7113],[29.7469,-2.6957]]]}},{"type":"Feature","properties":{"district":"Huye","district_code":"RW-SO-HUY","province":"Southern","agro_ecological_zone":"Central Plateau"},"geometry":{"type":"Polygon","coordinates":[[[29.666,-2.4185],[29.6422,-2.4376],[29.6321,-2.4629],[29.6104,-2.478],[29.6009,-2.4738],[29.5951,-2.4788],[29.6041,-2.5078],[29.5834,-2.5244],[29.5914,-2.537],[29.588,-2.5538],[29.6028,-2.5571],[29.6052,-2.5706],[29.6183,-2.5862],[29.6093,-2.6028],[29.6137,-2.6136],[29.6077,-2.625],[29.6366,-2.6326],[29.6416,-2.6549],[29.67,-2.6419],[29.6687,-2.657],[29.6827,-2.6741],[29.7041,-2.6832],[29.7245,-2.6799],[29.7469,-2.6957],[29.7665,-2.6718],[29.7733,-2.624],[29.7575,-2.5994],[29.76,-2.5708],[29.7679,-2.5547],[29.7629,-2.5354],[29.7861,-2.5172],[29.7863,-2.506],[29.804,-2.5064],[29.8043,-2.4899],[29.846,-2.4536],[29.8271,-2.4501],[29.8184,-2.4421],[29.8165,-2.4234],[29.8282,-2.416],[29.8354,-2.4184],[29.8341,-2.4048],[29.8141,-2.395],[29.7913,-2.3686],[29.762,-2.3875],[29.7385,-2.3938],[29.7333,-2.4032],[29.7201,-2.4003],[29.6999,-2.406],[29.692,-2.3928],[29.6835,-2.392],[29.6776,-2.41],[29.666,-2.4185]]]}},{"type":"Feature","properties":{"district":"Nyamagabe","district_code":"RW-SO-NYG","province":"Southern","agro_ecological_zone":"Highland (Congo-Nile)"},"geometry":{"type":"Polygon","coordinates":[[[29.5955,-2.2572],[29.5651,-2.2197],[29.5584,-2.2004],[29.5513,-2.1998],[29.5447,-2.2079],[29.5482,-2.2117],[29.5196,-2.2266],[29.5195,-2.2338],[29.494,-2.241],[29.4696,-2.2737],[29.4587,-2.2675],[29.4416,-2.276],[29.4211,-2.2671],[29.4086,-2.2787],[29.4028,-2.2769],[29.3863,-2.298],[29.3799,-2.2902],[29.3441,-2.2926],[29.3206,-2.32],[29.3273,-2.3396],[29.344,-2.36],[29.3183,-2.3986],[29.3272,-2.4069],[29.3287,-2.4217],[29.3235,-2.4325],[29.2803,-2.4419],[29.2647,-2.482],[29.2921,-2.4934],[29.3072,-2.4929],[29.3225,-2.5076],[29.3191,-2.5378],[29.3392,-2.5401],[29.336,-2.5572],[29.3469,-2.5594],[29.3457,-2.5762],[29.3611,-2.5699],[29.3631,-2.5548],[29.4131,-2.5561],[29.4229,-2.5602],[29.4283,-2.5773],[29.4434,-2.5816],[29.4457,-2.5947],[29.4547,-2.6003],[29.4614,-2.5879],[29.474,-2.5902],[29.486,-2.5836],[29.4797,-2.573],[29.4919,-2.5687],[29.499,-2.5563],[29.519,-2.552],[29.5341,-2.5336],[29.5404,-2.5325],[29.5582,-2.5479],[29.5666,-2.5454],[29.588,-2.5538],[29.5914,-2.537],[29.5834,-2.5244],[29.6041,-2.5078],[29.5951,-2.4788],[29.6009,-2.4738],[29.6104,-2.478],[29.6321,-2.4629],[29.6422,-2.4376],[29.6661,-2.4185],[29.6415,-2.4096],[29.6226,-2.3671],[29.6238,-2.3544],[29.6016,-2.3717],[29.5831,-2.3476],[29.5822,-2.3312],[29.5892,-2.3307],[29.5909,-2.3204],[29.6119,-2.3041],[29.6173,-2.2891],[29.6045,-2.2785],[29.5955,-2.2572]]]}},{"type":"Feature","properties":{"district":"Ruhango","district_code":"RW-SO-RUH","province":"Southern","agro_ecological_zone":"Central Plateau"},"geometry":{"type":"Polygon","coordinates":[[[29.9835,-2.2327],[29.9903,-2.2185],[29.9887,-2.202],[29.9593,-2.1993],[29.9271,-2.1414],[29.895,-2.1259],[29.8855,-2.1005],[29.8418,-2.1125],[29.8044,-2.1119],[29.8076,-2.123],[29.7918,-2.1277],[29.7962,-2.1364],[29.7894,-2.146],[29.7735,-2.1438],[29.7252,-2.1118],[29.688,-2.1215],[29.6821,-2.1066],[29.6724,-2.1043],[29.6654,-2.1059],[29.6661,-2.1198],[29.652,-2.1124],[29.6488,-2.1186],[29.6196,-2.1226],[29.6126,-2.1166],[29.5946,-2.1507],[29.6065,-2.1586],[29.6063,-2.1879],[29.587,-2.1936],[29.5852,-2.2019],[29.577,-2.1972],[29.5613,-2.2092],[29.5955,-2.2572],[29.61,-2.2533],[29.6298,-2.2633],[29.6391,-2.2518],[29.647,-2.262],[29.6592,-2.2508],[29.6799,-2.2728],[29.6892,-2.2719],[29.6957,-2.2668],[29.6935,-2.2452],[29.7096,-2.2475],[29.7135,-2.2417],[29.7373,-2.248],[29.7415,-2.2404],[29.7531,-2.2581],[29.7806,-2.2802],[29.7937,-2.2811],[29.8004,-2.2642],[29.8188,-2.2594],[29.8537,-2.2865],[29.8774,-2.2782],[29.9072,-2.2842],[29.9159,-2.2781],[29.9072,-2.2494],[29.8989,-2.2467],[29.9029,-2.2341],[29.9223,-2.2399],[29.9459,-2.2317],[29.9835,-2.2327]]]}},{"type":"Feature","properties":{"district":"Muhanga","district_code":"RW-SO-MUH","province":"Southern","agro_ecological_zone":"Central Plateau"},"geometry":{"type":"Polygon","coordinates":[[[29.8037,-2.1139],[29.792,-2.1003],[29.8053,-2.0953],[29.8044,-2.0885],[29.7913,-2.0783],[29.7975,-2.0618],[29.8152,-2.0598],[29.8051,-2.0463],[29.8075,-2.0388],[29.797,-2.0396],[29.7902,-2.031],[29.812,-2.0118],[29.7972,-1.9986],[29.8014,-1.977],[29.7905,-1.9569],[29.7929,-1.9308],[29.7841,-1.9125],[29.8175,-1.8529],[29.7973,-1.848],[29.799,-1.8297],[29.7693,-1.8068],[29.7638,-1.7809],[29.7443,-1.7646],[29.7479,-1.7507],[29.7285,-1.7482],[29.7174,-1.7555],[29.6947,-1.7336],[29.6624,-1.7324],[29.6619,-1.7534],[29.6733,-1.781],[29.6723,-1.8226],[29.6648,-1.8308],[29.6633,-1.8613],[29.6752,-1.8963],[29.6701,-1.9017],[29.6731,-1.9105],[29.6614,-1.9198],[29.6609,-1.9383],[29.6736,-1.9594],[29.6658,-1.9719],[29.6546,-1.9763],[29.6224,-1.9758],[29.6368,-1.9951],[29.6286,-2.0077],[29.6337,-2.0168],[29.6284,-2.0219],[29.6393,-2.0495],[29.6336,-2.0791],[29.6194,-2.0898],[29.6225,-2.095],[29.6156,-2.098],[29.6168,-2.1071],[29.6124,-2.1052],[29.6193,-2.1136],[29.6127,-2.118],[29.6193,-2.1226],[29.6448,-2.1193],[29.652,-2.1124],[29.6661,-2.1198],[29.6654,-2.1059],[29.6724,-2.1043],[29.6821,-2.1066],[29.688,-2.1215],[29.7252,-2.1118],[29.7735,-2.1438],[29.7894,-2.146],[29.7962,-2.1364],[29.7918,-2.1277],[29.8076,-2.123],[29.8037,-2.1139]]]}},{"type":"Feature","properties":{"district":"Kamonyi","district_code":"RW-SO-KAM","province":"Southern","agro_ecological_zone":"Central Plateau"},"geometry":{"type":"Polygon","coordinates":[[[29.9828,-1.9134],[29.9772,-1.9058],[29.9629,-1.9076],[29.9566,-1.9002],[29.9595,-1.8953],[29.9487,-1.8909],[29.9424,-1.878],[29.9338,-1.8777],[29.9269,-1.8678],[29.9185,-1.8696],[29.9101,-1.8573],[29.8945,-1.8628],[29.8799,-1.854],[29.8526,-1.8733],[29.841,-1.8572],[29.8175,-1.8529],[29.7841,-1.9125],[29.7929,-1.9308],[29.7905,-1.9569],[29.8014,-1.977],[29.7972,-1.9986],[29.8122,-2.0137],[29.7902,-2.0311],[29.797,-2.0396],[29.8075,-2.0388],[29.8051,-2.0463],[29.8152,-2.0598],[29.8034,-2.0575],[29.7949,-2.0646],[29.7921,-2.0821],[29.8055,-2.0946],[29.792,-2.1004],[29.8038,-2.1139],[29.8418,-2.1125],[29.8872,-2.1014],[29.8934,-2.1243],[29.9063,-2.1356],[29.9271,-2.1414],[29.9638,-2.2021],[29.9845,-2.2019],[29.9859,-2.1469],[30.0044,-2.1381],[30.0208,-2.1118],[30.0149,-2.0939],[30.0193,-2.0742],[29.994,-2.0683],[29.9837,-2.0578],[29.9834,-2.0437],[29.9974,-2.03],[30.0089,-2.0281],[30.0058,-2.0198],[30.0155,-2.0128],[29.993,-1.9932],[29.9957,-1.9837],[30.0023,-1.9834],[29.9981,-1.9712],[30.0037,-1.9697],[30.0034,-1.9555],[29.9985,-1.9564],[29.9987,-1.9406],[29.9878,-1.9333],[29.9828,-1.9134]]]}},{"type":"Feature","properties":{"district":"Karongi","district_code":"RW-WE-KAR","province":"Western","agro_ecological_zone":"Highland (Congo-Nile)"},"geometry":{"type":"Polygon","coordinates":[[[29.5621,-2.2058],[29.577,-2.1972],[29.5852,-2.2019],[29.587,-2.1936],[29.6032,-2.1911],[29.6091,-2.1807],[29.6063,-2.1582],[29.5946,-2.1507],[29.6105,-2.1183],[29.619,-2.1144],[29.6124,-2.1052],[29.6168,-2.1071],[29.6243,-2.0843],[29.6102,-2.0725],[29.5923,-2.0743],[29.5879,-2.0619],[29.5419,-2.0702],[29.5398,-2.0642],[29.517,-2.0568],[29.4847,-2.0634],[29.4773,-2.0512],[29.462,-2.0437],[29.4665,-2.0327],[29.4609,-2.0293],[29.4476,-2.0456],[29.4365,-2.0425],[29.4307,-2.0472],[29.4115,-2.0381],[29.4113,-2.032],[29.399,-2.0304],[29.3947,-2.0366],[29.3743,-2.0238],[29.3545,-2.0301],[29.1596,-2.0299],[29.1744,-2.1049],[29.1678,-2.1471],[29.2468,-2.1465],[29.2672,-2.1605],[29.2905,-2.2038],[29.3049,-2.2147],[29.3154,-2.2138],[29.3041,-2.2322],[29.3147,-2.2445],[29.3118,-2.2635],[29.3179,-2.2756],[29.3048,-2.2861],[29.3113,-2.2938],[29.3089,-2.2995],[29.3208,-2.3061],[29.3232,-2.324],[29.3206,-2.32],[29.3441,-2.2926],[29.3799,-2.2902],[29.3863,-2.298],[29.4028,-2.2769],[29.4086,-2.2787],[29.4214,-2.2671],[29.4416,-2.276],[29.4587,-2.2675],[29.4696,-2.2737],[29.494,-2.241],[29.5195,-2.2338],[29.5196,-2.2266],[29.5482,-2.2117],[29.5447,-2.2079],[29.5513,-2.1998],[29.5621,-2.2058]]]}},{"type":"Feature","properties":{"district":"Rutsiro","district_code":"RW-WE-RUT","province":"Western","agro_ecological_zone":"Highland (Congo-Nile)"},"geometry":{"type":"Polygon","coordinates":[[[29.5584,-2.0638],[29.5396,-2.0593],[29.5384,-2.0519],[29.5493,-2.0401],[29.545,-2.0317],[29.5632,-2.027],[29.5644,-2.0214],[29.5358,-2.0059],[29.515,-1.9792],[29.5265,-1.9729],[29.5331,-1.9544],[29.5145,-1.9414],[29.5084,-1.9273],[29.4796,-1.9165],[29.4581,-1.8727],[29.463,-1.8465],[29.4393,-1.8367],[29.4297,-1.8165],[29.4182,-1.8121],[29.4137,-1.8015],[29.3982,-1.798],[29.4107,-1.7916],[29.4184,-1.7946],[29.4303,-1.7809],[29.4469,-1.7771],[29.4451,-1.7528],[29.4203,-1.7297],[29.4084,-1.7295],[29.3999,-1.7382],[29.3722,-1.736],[29.3662,-1.7524],[29.3107,-1.7378],[29.3002,-1.7486],[29.3008,-1.7675],[29.2796,-1.7735],[29.1905,-1.7724],[29.1461,-1.8349],[29.1314,-1.8776],[29.1264,-1.9298],[29.1596,-2.0299],[29.3545,-2.0301],[29.3743,-2.0238],[29.3947,-2.0366],[29.399,-2.0304],[29.4113,-2.032],[29.4115,-2.0381],[29.4307,-2.0472],[29.4365,-2.0425],[29.4476,-2.0456],[29.4609,-2.0293],[29.4665,-2.0327],[29.462,-2.0437],[29.4773,-2.0512],[29.4847,-2.0634],[29.517,-2.0568],[29.5398,-2.0642],[29.5412,-2.0702],[29.5543,-2.0656],[29.56,-2.0694],[29.5584,-2.0638]]]}},{"type":"Feature","properties":{"district":"Rubavu","district_code":"RW-WE-RUB","province":"Western","agro_ecological_zone":"Highland (Congo-Nile)"},"geometry":{"type":"Polygon","coordinates":[[[29.4199,-1.7295],[29.4234,-1.7171],[29.4349,-1.7148],[29.4372,-1.6926],[29.3987,-1.6801],[29.4009,-1.6385],[29.4188,-1.6293],[29.4118,-1.619],[29.4173,-1.6175],[29.4156,-1.6073],[29.4037,-1.5987],[29.406,-1.5696],[29.3957,-1.5593],[29.381,-1.5622],[29.3843,-1.5499],[29.3987,-1.549],[29.3975,-1.5079],[29.3616,-1.5092],[29.3535,-1.537],[29.3369,-1.5476],[29.3104,-1.6],[29.2685,-1.629],[29.2564,-1.6583],[29.2429,-1.6681],[29.2443,-1.6988],[29.1905,-1.7724],[29.2796,-1.7735],[29.3008,-1.7675],[29.3002,-1.7486],[29.3107,-1.7378],[29.3662,-1.7524],[29.3722,-1.736],[29.3999,-1.7382],[29.407,-1.7301],[29.4199,-1.7295]]]}},{"type":"Feature","properties":{"district":"Nyabihu","district_code":"RW-WE-NYB","province":"Western","agro_ecological_zone":"Highland (Congo-Nile)"},"geometry":{"type":"Polygon","coordinates":[[[29.4349,-1.7386],[29.452,-1.7356],[29.4625,-1.7641],[29.5031,-1.7701],[29.5076,-1.777],[29.5238,-1.7509],[29.5304,-1.7512],[29.5382,-1.7408],[29.5562,-1.7484],[29.5731,-1.741],[29.5939,-1.7477],[29.6159,-1.7435],[29.6169,-1.7348],[29.6387,-1.7221],[29.6325,-1.6986],[29.64,-1.6766],[29.6332,-1.6491],[29.6385,-1.5923],[29.6245,-1.585],[29.5856,-1.592],[29.5592,-1.5699],[29.5532,-1.5764],[29.5485,-1.5679],[29.5383,-1.5746],[29.4992,-1.5637],[29.45,-1.506],[29.3975,-1.5079],[29.3987,-1.549],[29.3843,-1.5499],[29.381,-1.5622],[29.3957,-1.5593],[29.406,-1.5696],[29.4037,-1.5987],[29.4156,-1.6073],[29.4173,-1.6175],[29.4118,-1.619],[29.4188,-1.6293],[29.4009,-1.6385],[29.3986,-1.6799],[29.4372,-1.6926],[29.4349,-1.7148],[29.4234,-1.7171],[29.4199,-1.7295],[29.4204,-1.7352],[29.4349,-1.7386]]]}},{"type":"Feature","properties":{"district":"Ngororero","district_code":"RW-WE-NGO","province":"Western","agro_ecological_zone":"Highland (Congo-Nile)"},"geometry":{"type":"Polygon","coordinates":[[[29.6589,-1.735],[29.6387,-1.7221],[29.617,-1.7347],[29.6159,-1.7435],[29.6082,-1.7472],[29.5748,-1.741],[29.5542,-1.7482],[29.5382,-1.7408],[29.5304,-1.7512],[29.5238,-1.7509],[29.5076,-1.777],[29.5031,-1.7701],[29.465,-1.7658],[29.4622,-1.7527],[29.4525,-1.7471],[29.4562,-1.7389],[29.4402,-1.7353],[29.4352,-1.7434],[29.448,-1.7614],[29.4467,-1.7776],[29.4326,-1.7795],[29.4184,-1.7946],[29.4107,-1.7916],[29.3982,-1.798],[29.4137,-1.8015],[29.4182,-1.8121],[29.4297,-1.8165],[29.4393,-1.8367],[29.463,-1.8465],[29.4581,-1.8727],[29.4796,-1.9165],[29.5084,-1.9273],[29.5145,-1.9414],[29.5331,-1.9544],[29.5265,-1.9729],[29.5151,-1.9795],[29.5358,-2.0059],[29.5656,-2.025],[29.545,-2.0317],[29.5493,-2.0401],[29.5403,-2.0479],[29.5393,-2.0591],[29.5779,-2.0676],[29.5879,-2.0619],[29.5923,-2.0743],[29.6102,-2.0725],[29.6245,-2.0859],[29.6336,-2.0791],[29.6393,-2.0495],[29.6284,-2.0219],[29.6337,-2.0168],[29.6286,-2.0077],[29.6368,-1.9951],[29.6224,-1.9758],[29.6546,-1.9763],[29.6658,-1.9719],[29.6736,-1.9594],[29.6609,-1.9383],[29.6614,-1.9198],[29.6731,-1.9105],[29.6701,-1.9017],[29.6752,-1.8963],[29.6633,-1.8613],[29.6648,-1.8308],[29.6723,-1.8226],[29.6733,-1.781],[29.6589,-1.735]]]}},{"type":"Feature","properties":{"district":"Rusizi","district_code":"RW-WE-RUS","province":"Western","agro_ecological_zone":"Highland (Congo-Nile)"},"geometry":{"type":"Polygon","coordinates":[[[29.3454,-2.5754],[29.3469,-2.5594],[29.336,-2.5572],[29.3392,-2.5401],[29.3191,-2.5378],[29.3241,-2.5177],[29.3193,-2.504],[29.3072,-2.4929],[29.2778,-2.4867],[29.2726,-2.492],[29.2409,-2.4726],[29.215,-2.4821],[29.2035,-2.4756],[29.192,-2.4906],[29.1729,-2.4805],[29.1518,-2.4952],[29.1275,-2.4877],[29.1193,-2.4781],[29.1227,-2.5053],[29.1008,-2.5204],[29.0807,-2.5185],[29.0737,-2.5327],[29.0484,-2.5413],[29.045,-2.5623],[29.0375,-2.569],[29.0347,-2.5414],[29.0175,-2.5353],[28.9764,-2.4883],[28.9818,-2.4718],[28.9754,-2.4592],[28.9786,-2.4477],[28.9649,-2.4383],[28.9727,-2.3924],[28.9625,-2.3729],[28.9074,-2.3732],[28.8835,-2.393],[28.8692,-2.4194],[28.8684,-2.4461],[28.892,-2.4749],[28.8929,-2.4909],[28.8888,-2.5054],[28.8661,-2.5167],[28.8618,-2.5302],[28.8952,-2.568],[28.9058,-2.6453],[28.8958,-2.6527],[28.8973,-2.6604],[28.91,-2.665],[28.9176,-2.6802],[28.9373,-2.6818],[28.9438,-2.693],[28.9595,-2.6938],[28.9666,-2.7035],[28.9805,-2.694],[28.9957,-2.6994],[29.0405,-2.7447],[29.0424,-2.7251],[29.0573,-2.7098],[29.0499,-2.7021],[29.055,-2.6894],[29.0477,-2.6874],[29.0581,-2.6781],[29.0467,-2.6712],[29.0618,-2.6498],[29.0526,-2.6234],[29.0623,-2.6023],[29.0731,-2.6038],[29.093,-2.5921],[29.0956,-2.5971],[29.1161,-2.5972],[29.1279,-2.6106],[29.1416,-2.6043],[29.1395,-2.5986],[29.1497,-2.5917],[29.1629,-2.5956],[29.1738,-2.6156],[29.1871,-2.6103],[29.186,-2.6159],[29.2034,-2.6157],[29.2204,-2.6323],[29.2264,-2.6257],[29.2331,-2.6288],[29.2476,-2.6221],[29.2513,-2.6269],[29.2653,-2.6188],[29.2936,-2.6409],[29.3149,-2.647],[29.3198,-2.6567],[29.3262,-2.6535],[29.335,-2.6694],[29.3291,-2.6826],[29.3491,-2.6767],[29.3571,-2.6453],[29.3679,-2.6314],[29.3529,-2.5958],[29.3425,-2.5932],[29.345,-2.5853],[29.3397,-2.5813],[29.3454,-2.5754]]]}},{"type":"Feature","properties":{"district":"Rulindo","district_code":"RW-NO-RUL","province":"Northern","agro_ecological_zone":"Highland (Congo-Nile)"},"geometry":{"type":"Polygon","coordinates":[[[29.9894,-1.8668],[29.9911,-1.8475],[30.0064,-1.8387],[30.0158,-1.8363],[30.0293,-1.8652],[30.057,-1.8443],[30.0635,-1.8288],[30.0947,-1.8206],[30.0995,-1.8127],[30.1177,-1.82],[30.128,-1.809],[30.133,-1.7799],[30.1225,-1.771],[30.0992,-1.7727],[30.0844,-1.7565],[30.0759,-1.7329],[30.0834,-1.7149],[30.055,-1.668],[30.0764,-1.651],[30.0351,-1.602],[30.0105,-1.6226],[30.018,-1.6543],[30.0073,-1.6518],[29.9999,-1.6615],[29.9939,-1.6413],[29.9826,-1.6323],[29.9746,-1.6392],[29.9578,-1.6073],[29.944,-1.5957],[29.9009,-1.5896],[29.9053,-1.611],[29.8643,-1.6129],[29.8809,-1.6497],[29.8725,-1.6642],[29.8751,-1.6752],[29.8969,-1.7072],[29.9061,-1.7489],[29.9327,-1.7999],[29.9122,-1.807],[29.9039,-1.8581],[29.9424,-1.878],[29.9487,-1.8909],[29.9595,-1.8953],[29.9566,-1.9002],[29.9629,-1.9076],[29.9772,-1.9058],[29.9828,-1.9134],[29.9925,-1.9074],[29.978,-1.8907],[29.9775,-1.881],[29.98,-1.8714],[29.9894,-1.8668]]]}},{"type":"Feature","properties":{"district":"Gakenke","district_code":"RW-NO-GAK","province":"Northern","agro_ecological_zone":"Highland (Congo-Nile)"},"geometry":{"type":"Polygon","coordinates":[[[29.8175,-1.8529],[29.841,-1.8572],[29.8526,-1.8733],[29.8799,-1.854],[29.902,-1.8625],[29.9109,-1.8401],[29.9122,-1.807],[29.9327,-1.7999],[29.9061,-1.7489],[29.8969,-1.7072],[29.8751,-1.6752],[29.8725,-1.6642],[29.8809,-1.6497],[29.8585,-1.6069],[29.8536,-1.5798],[29.8423,-1.5798],[29.8375,-1.5596],[29.7866,-1.5691],[29.7618,-1.5497],[29.7519,-1.5659],[29.7533,-1.5835],[29.7372,-1.5847],[29.704,-1.5602],[29.6842,-1.558],[29.6735,-1.5746],[29.6766,-1.5804],[29.6687,-1.5793],[29.6743,-1.5929],[29.6671,-1.5925],[29.6672,-1.5988],[29.6477,-1.5966],[29.6426,-1.5894],[29.6355,-1.5974],[29.6332,-1.6491],[29.64,-1.6766],[29.6325,-1.6969],[29.6356,-1.7194],[29.6549,-1.7352],[29.6949,-1.7337],[29.7166,-1.7553],[29.7285,-1.7482],[29.7479,-1.7507],[29.7443,-1.7646],[29.7638,-1.7809],[29.7693,-1.8068],[29.799,-1.8297],[29.7973,-1.848],[29.8175,-1.8529]]]}},{"type":"Feature","properties":{"district":"Musanze","district_code":"RW-NO-MUS","province":"Northern","agro_ecological_zone":"Highland (Congo-Nile)"},"geometry":{"type":"Polygon","coordinates":[[[29.6385,-1.5923],[29.6672,-1.5988],[29.6671,-1.5925],[29.6743,-1.5929],[29.6687,-1.5793],[29.6766,-1.5804],[29.6735,-1.5746],[29.6842,-1.558],[29.704,-1.5602],[29.7369,-1.5847],[29.7533,-1.5835],[29.7519,-1.5659],[29.765,-1.5391],[29.7602,-1.5057],[29.7471,-1.4818],[29.725,-1.4928],[29.6961,-1.4577],[29.6745,-1.4578],[29.6715,-1.4463],[29.6603,-1.4504],[29.6574,-1.3901],[29.6098,-1.3858],[29.587,-1.3925],[29.574,-1.3868],[29.5572,-1.3898],[29.526,-1.4094],[29.5203,-1.4288],[29.4962,-1.4427],[29.45,-1.506],[29.4992,-1.5637],[29.5383,-1.5746],[29.5485,-1.5679],[29.5532,-1.5764],[29.5592,-1.5699],[29.5856,-1.592],[29.6245,-1.585],[29.6385,-1.5923]]]}},{"type":"Feature","properties":{"district":"Burera","district_code":"RW-NO-BUR","province":"Northern","agro_ecological_zone":"Highland (Congo-Nile)"},"geometry":{"type":"Polygon","coordinates":[[[29.944,-1.5957],[29.9545,-1.5931],[29.9511,-1.5765],[29.9559,-1.5654],[29.9643,-1.5743],[29.9715,-1.5697],[29.9727,-1.5868],[29.9976,-1.5689],[29.9726,-1.5378],[29.9664,-1.5398],[29.9614,-1.5276],[29.9694,-1.5182],[29.9828,-1.5213],[29.9955,-1.5096],[29.9934,-1.5008],[29.9807,-1.5015],[29.9756,-1.4916],[29.9834,-1.4861],[29.9804,-1.4698],[29.9882,-1.4621],[29.9827,-1.4542],[29.9143,-1.482],[29.8937,-1.4516],[29.8856,-1.4231],[29.8831,-1.3565],[29.8615,-1.3604],[29.8412,-1.3333],[29.8419,-1.3199],[29.8209,-1.3109],[29.8192,-1.3274],[29.8094,-1.3297],[29.7965,-1.3503],[29.7964,-1.3728],[29.7767,-1.3657],[29.7591,-1.3471],[29.7334,-1.3404],[29.7013,-1.3542],[29.6783,-1.3828],[29.6592,-1.3936],[29.6603,-1.4504],[29.6715,-1.4463],[29.6745,-1.4578],[29.6961,-1.4577],[29.725,-1.4928],[29.7471,-1.4818],[29.7634,-1.5174],[29.7617,-1.5496],[29.7795,-1.5591],[29.7825,-1.5667],[29.8375,-1.5596],[29.8423,-1.5798],[29.8536,-1.5798],[29.8643,-1.6127],[29.9053,-1.611],[29.9009,-1.5896],[29.944,-1.5957]]]}},{"type":"Feature","properties":{"district":"Gicumbi","district_code":"RW-NO-GIC","province":"Northern","agro_ecological_zone":"Highland (Congo-Nile)"},"geometry":{"type":"Polygon","coordinates":[[[30.2478,-1.8457],[30.2561,-1.8416],[30.2603,-1.8287],[30.2756,-1.8305],[30.2742,-1.7953],[30.2559,-1.763],[30.2548,-1.7379],[30.2471,-1.722],[30.263,-1.7085],[30.2424,-1.674],[30.2274,-1.6674],[30.224,-1.6508],[30.2166,-1.6502],[30.2082,-1.6276],[30.1941,-1.6256],[30.1708,-1.5841],[30.1625,-1.5429],[30.167,-1.5343],[30.1781,-1.531],[30.1813,-1.5188],[30.1565,-1.5194],[30.1445,-1.5293],[30.1399,-1.5269],[30.1384,-1.5166],[30.1455,-1.5141],[30.1338,-1.4947],[30.1338,-1.4819],[30.126,-1.4794],[30.1152,-1.4482],[30.0993,-1.4349],[30.0936,-1.4129],[30.0827,-1.4135],[30.075,-1.3921],[30.0519,-1.3979],[30.0529,-1.4311],[30.0242,-1.4151],[29.9827,-1.4542],[29.9882,-1.4621],[29.9804,-1.4698],[29.9834,-1.4861],[29.9759,-1.493],[29.9807,-1.5015],[29.9934,-1.5008],[29.9955,-1.5096],[29.9828,-1.5213],[29.9694,-1.5182],[29.9615,-1.5277],[29.9664,-1.5398],[29.9726,-1.5378],[29.9976,-1.5689],[29.9727,-1.5868],[29.9715,-1.5697],[29.9643,-1.5743],[29.9559,-1.5654],[29.9511,-1.5765],[29.9545,-1.5931],[29.9445,-1.5969],[29.9578,-1.6073],[29.9746,-1.6392],[29.9826,-1.6323],[29.9939,-1.6413],[29.9999,-1.6615],[30.0073,-1.6518],[30.018,-1.6543],[30.0105,-1.6226],[30.0351,-1.602],[30.0764,-1.651],[30.0605,-1.6589],[30.0551,-1.6691],[30.0834,-1.7149],[30.0761,-1.734],[30.0938,-1.7678],[30.1133,-1.7753],[30.1263,-1.772],[30.1329,-1.7839],[30.1425,-1.7806],[30.1479,-1.7927],[30.1639,-1.7908],[30.2174,-1.8408],[30.2478,-1.8457]]]}},{"type":"Feature","properties":{"district":"Rwamagana","district_code":"RW-EA-RWA","province":"Eastern","agro_ecological_zone":"Eastern Savanna"},"geometry":{"type":"Polygon","coordinates":[[[30.2359,-1.9812],[30.2287,-2.0433],[30.2206,-2.0607],[30.222,-2.0662],[30.2449,-2.0737],[30.2446,-2.0904],[30.2497,-2.0909],[30.2462,-2.0949],[30.2528,-2.1079],[30.269,-2.1126],[30.2665,-2.1335],[30.2808,-2.131],[30.2835,-2.1233],[30.3683,-2.0784],[30.4113,-2.0858],[30.4469,-2.0785],[30.4541,-2.06],[30.4778,-2.0587],[30.4841,-2.0489],[30.4859,-2.0218],[30.4715,-1.9847],[30.4704,-1.9345],[30.4592,-1.9116],[30.459,-1.8934],[30.4614,-1.8858],[30.4826,-1.888],[30.4889,-1.8591],[30.468,-1.8427],[30.4504,-1.8405],[30.4216,-1.8457],[30.3845,-1.8668],[30.353,-1.876],[30.3202,-1.8584],[30.294,-1.8247],[30.2724,-1.8316],[30.2603,-1.8287],[30.2561,-1.8416],[30.2478,-1.8457],[30.2474,-1.8572],[30.2652,-1.8649],[30.2582,-1.8757],[30.2581,-1.8944],[30.2729,-1.9001],[30.2771,-1.935],[30.2652,-1.9534],[30.2541,-1.9514],[30.234,-1.9615],[30.2359,-1.9812]]]}},{"type":"Feature","properties":{"district":"Nyagatare","district_code":"RW-EA-NYG","province":"Eastern","agro_ecological_zone":"Eastern Savanna"},"geometry":{"type":"Polygon","coordinates":[[[30.1813,-1.5188],[30.1942,-1.5128],[30.1994,-1.4979],[30.2275,-1.4952],[30.2568,-1.4822],[30.2746,-1.4962],[30.2727,-1.5134],[30.312,-1.5321],[30.3269,-1.5084],[30.347,-1.4965],[30.3454,-1.5459],[30.3809,-1.5428],[30.3927,-1.5479],[30.4077,-1.5011],[30.405,-1.482],[30.4308,-1.4844],[30.4532,-1.4684],[30.4629,-1.4716],[30.472,-1.489],[30.5529,-1.4693],[30.7391,-1.4582],[30.7411,-1.4528],[30.6786,-1.3936],[30.6292,-1.3844],[30.6133,-1.35],[30.5688,-1.3371],[30.5546,-1.3061],[30.5623,-1.2892],[30.5524,-1.2721],[30.5521,-1.2529],[30.5241,-1.2128],[30.5094,-1.1717],[30.5011,-1.164],[30.47,-1.1556],[30.469,-1.1325],[30.4765,-1.1221],[30.4591,-1.1177],[30.4512,-1.0889],[30.4731,-1.0568],[30.4423,-1.0477],[30.4286,-1.0643],[30.4029,-1.0609],[30.3916,-1.0684],[30.3769,-1.0609],[30.374,-1.0697],[30.359,-1.0603],[30.3521,-1.0622],[30.3487,-1.0868],[30.3385,-1.1006],[30.3446,-1.1315],[30.3072,-1.1448],[30.2976,-1.1585],[30.2923,-1.1893],[30.2782,-1.1981],[30.2756,-1.2097],[30.2537,-1.2202],[30.2431,-1.2411],[30.2108,-1.2761],[30.1981,-1.274],[30.1981,-1.2808],[30.1914,-1.2819],[30.1877,-1.2711],[30.1713,-1.273],[30.1751,-1.3017],[30.1658,-1.3068],[30.1616,-1.3181],[30.1624,-1.335],[30.1701,-1.3452],[30.1445,-1.351],[30.1376,-1.3616],[30.1293,-1.3629],[30.1234,-1.3844],[30.1037,-1.372],[30.0818,-1.3731],[30.0704,-1.3812],[30.0827,-1.4135],[30.0936,-1.4129],[30.0993,-1.4349],[30.1152,-1.4482],[30.126,-1.4794],[30.1338,-1.4819],[30.1338,-1.4947],[30.1455,-1.5141],[30.1384,-1.5166],[30.1399,-1.5269],[30.1445,-1.5293],[30.1565,-1.5194],[30.1813,-1.5188]]]}},{"type":"Feature","properties":{"district":"Gatsibo","district_code":"RW-EA-GAT","province":"Eastern","agro_ecological_zone":"Eastern Savanna"},"geometry":{"type":"Polygon","coordinates":[[[30.2756,-1.8305],[30.2943,-1.8248],[30.3202,-1.8584],[30.353,-1.876],[30.3845,-1.8668],[30.4194,-1.8467],[30.446,-1.8097],[30.4492,-1.7755],[30.459,-1.7669],[30.4599,-1.7451],[30.4445,-1.7293],[30.4434,-1.7162],[30.4657,-1.6739],[30.5261,-1.6643],[30.5291,-1.659],[30.5192,-1.6541],[30.5159,-1.6436],[30.6382,-1.5997],[30.8392,-1.6508],[30.746,-1.5221],[30.7391,-1.4582],[30.5529,-1.4693],[30.472,-1.489],[30.4629,-1.4716],[30.4532,-1.4684],[30.4308,-1.4844],[30.405,-1.482],[30.4077,-1.5011],[30.3927,-1.5479],[30.3809,-1.5428],[30.3454,-1.5459],[30.347,-1.4965],[30.3269,-1.5084],[30.3129,-1.5321],[30.2727,-1.5134],[30.2746,-1.4962],[30.2568,-1.4822],[30.2476,-1.4896],[30.1971,-1.4993],[30.1942,-1.5128],[30.1642,-1.5373],[30.1632,-1.556],[30.1708,-1.5841],[30.1941,-1.6256],[30.2082,-1.6276],[30.2166,-1.6502],[30.224,-1.6508],[30.2274,-1.6674],[30.2424,-1.674],[30.263,-1.7085],[30.2471,-1.722],[30.2548,-1.7379],[30.2559,-1.763],[30.2742,-1.7953],[30.2756,-1.8305]]]}},{"type":"Feature","properties":{"district":"Kayonza","district_code":"RW-EA-KAY","province":"Eastern","agro_ecological_zone":"Eastern Savanna"},"geometry":{"type":"Polygon","coordinates":[[[30.483,-2.0536],[30.5025,-2.0455],[30.524,-2.0629],[30.55,-2.0534],[30.5585,-2.0555],[30.5618,-2.0641],[30.5791,-2.0612],[30.5761,-2.0922],[30.6092,-2.0984],[30.6092,-2.1142],[30.6198,-2.1139],[30.6284,-2.125],[30.6748,-2.1128],[30.6839,-2.0883],[30.6937,-2.0824],[30.6916,-2.0909],[30.7073,-2.0862],[30.7091,-2.0577],[30.724,-2.0474],[30.7443,-2.0574],[30.7628,-2.0528],[30.7684,-2.0377],[30.8043,-2.0019],[30.8053,-1.9894],[30.8278,-1.9715],[30.8079,-1.9377],[30.831,-1.8114],[30.8215,-1.6932],[30.8392,-1.6508],[30.6382,-1.5997],[30.5159,-1.6436],[30.5192,-1.6541],[30.5291,-1.659],[30.5261,-1.6643],[30.4657,-1.6739],[30.4434,-1.7162],[30.4445,-1.7293],[30.4599,-1.7451],[30.459,-1.7669],[30.4492,-1.7755],[30.446,-1.8097],[30.4198,-1.8464],[30.4622,-1.841],[30.4889,-1.8591],[30.4826,-1.888],[30.4614,-1.8858],[30.459,-1.8934],[30.4592,-1.9116],[30.4704,-1.9345],[30.4715,-1.9847],[30.4859,-2.0218],[30.483,-2.0536]]]}},{"type":"Feature","properties":{"district":"Kirehe","district_code":"RW-EA-KIR","province":"Eastern","agro_ecological_zone":"Eastern Savanna"},"geometry":{"type":"Polygon","coordinates":[[[30.6557,-2.119],[30.6563,-2.1416],[30.64,-2.1483],[30.6603,-2.167],[30.6369,-2.1917],[30.628,-2.1823],[30.6189,-2.1869],[30.616,-2.1992],[30.5835,-2.2095],[30.571,-2.2345],[30.5817,-2.2325],[30.5879,-2.2507],[30.577,-2.2624],[30.5608,-2.2665],[30.5465,-2.286],[30.5125,-2.2998],[30.491,-2.2872],[30.4848,-2.3086],[30.4596,-2.3204],[30.4578,-2.3441],[30.4695,-2.3519],[30.4703,-2.3665],[30.4859,-2.3672],[30.4895,-2.3775],[30.508,-2.3904],[30.5106,-2.4019],[30.5689,-2.4203],[30.6075,-2.4004],[30.6404,-2.4051],[30.6579,-2.4141],[30.6889,-2.3843],[30.6951,-2.365],[30.7166,-2.3567],[30.742,-2.3777],[30.7628,-2.3834],[30.7664,-2.3923],[30.7817,-2.3913],[30.7837,-2.3799],[30.7965,-2.3676],[30.8175,-2.3657],[30.8262,-2.3573],[30.8387,-2.3293],[30.8562,-2.3162],[30.8498,-2.3014],[30.8531,-2.2743],[30.8423,-2.2402],[30.8442,-2.2058],[30.8599,-2.18],[30.8661,-2.1441],[30.8765,-2.1352],[30.8742,-2.1201],[30.8997,-2.078],[30.8278,-1.9715],[30.8053,-1.9894],[30.8043,-2.0019],[30.7684,-2.0377],[30.7628,-2.0528],[30.7443,-2.0574],[30.724,-2.0474],[30.7182,-2.0506],[30.7091,-2.0577],[30.7073,-2.0862],[30.6962,-2.0919],[30.6915,-2.0908],[30.6937,-2.0824],[30.6884,-2.0852],[30.6748,-2.1128],[30.6557,-2.119]],[[30.6566,-2.1409],[30.6566,-2.1409]]]}},{"type":"Feature","properties":{"district":"Ngoma","district_code":"RW-EA-NGO","province":"Eastern","agro_ecological_zone":"Eastern Savanna"},"geometry":{"type":"MultiPolygon","coordinates":[[[[30.2703,-2.1326],[30.2663,-2.1454],[30.274,-2.1496],[30.2596,-2.1736],[30.2698,-2.179],[30.2663,-2.189],[30.276,-2.1955],[30.2793,-2.2094],[30.3264,-2.2002],[30.3219,-2.2086],[30.3339,-2.2173],[30.3401,-2.2468],[30.3345,-2.2491],[30.3373,-2.267],[30.3291,-2.274],[30.3281,-2.2883],[30.3536,-2.3114],[30.3582,-2.3397],[30.3673,-2.3501],[30.3739,-2.3485],[30.3809,-2.3265],[30.3925,-2.3137],[30.4089,-2.3108],[30.4213,-2.3268],[30.4372,-2.3303],[30.4497,-2.3195],[30.4848,-2.3086],[30.491,-2.2872],[30.5125,-2.2998],[30.5489,-2.2846],[30.5608,-2.2665],[30.5756,-2.2634],[30.5879,-2.2507],[30.5817,-2.2325],[30.571,-2.2345],[30.5835,-2.2095],[30.616,-2.1992],[30.6189,-2.1869],[30.628,-2.1823],[30.6369,-2.1917],[30.661,-2.1657],[30.64,-2.1483],[30.6563,-2.1416],[30.6557,-2.119],[30.6284,-2.125],[30.6198,-2.1139],[30.6092,-2.1142],[30.6092,-2.0984],[30.5761,-2.0922],[30.5791,-2.0612],[30.5618,-2.0641],[30.5585,-2.0555],[30.55,-2.0534],[30.524,-2.0629],[30.5025,-2.0455],[30.4778,-2.0587],[30.458,-2.0578],[30.4469,-2.0785],[30.4354,-2.0827],[30.4091,-2.0857],[30.3683,-2.0784],[30.2703,-2.1326]]],[[[30.6566,-2.1409],[30.6566,-2.1409]]]]}},{"type":"Feature","properties":{"district":"Bugesera","district_code":"RW-EA-BUG","province":"Eastern","agro_ecological_zone":"Eastern Savanna"},"geometry":{"type":"Polygon","coordinates":[[[30.0193,-2.0742],[30.0181,-2.1182],[30.0033,-2.1391],[29.9861,-2.1465],[29.9833,-2.1555],[29.9903,-2.2185],[29.9735,-2.2744],[29.9615,-2.2902],[29.9662,-2.3176],[29.9592,-2.3269],[29.9976,-2.344],[30.0324,-2.3503],[30.0472,-2.3633],[30.063,-2.394],[30.0977,-2.4237],[30.1315,-2.4381],[30.1644,-2.427],[30.1842,-2.4291],[30.1969,-2.4097],[30.199,-2.3885],[30.2142,-2.3825],[30.2155,-2.3712],[30.2424,-2.36],[30.2548,-2.3739],[30.2801,-2.376],[30.3744,-2.356],[30.3742,-2.3477],[30.3665,-2.3499],[30.359,-2.3417],[30.3536,-2.3114],[30.3281,-2.2883],[30.3291,-2.274],[30.3373,-2.267],[30.3345,-2.2491],[30.3401,-2.2468],[30.3339,-2.2173],[30.3219,-2.2086],[30.3264,-2.2002],[30.2793,-2.2094],[30.276,-2.1955],[30.2663,-2.189],[30.2698,-2.179],[30.2596,-2.1736],[30.274,-2.1496],[30.2663,-2.1454],[30.2703,-2.1325],[30.2652,-2.1269],[30.2707,-2.1184],[30.2611,-2.1064],[30.2509,-2.1047],[30.2449,-2.0737],[30.2221,-2.0662],[30.2218,-2.0724],[30.2081,-2.0797],[30.1991,-2.057],[30.1927,-2.0605],[30.1897,-2.0426],[30.1726,-2.0282],[30.1656,-2.0339],[30.158,-2.0308],[30.1472,-2.0409],[30.1372,-2.0395],[30.1371,-2.0461],[30.1329,-2.0439],[30.1279,-2.0528],[30.1236,-2.0496],[30.1257,-2.0554],[30.1189,-2.0598],[30.1182,-2.0547],[30.1137,-2.0603],[30.1017,-2.0559],[30.0962,-2.0645],[30.0901,-2.0593],[30.066,-2.0713],[30.0545,-2.0645],[30.058,-2.0558],[30.0467,-2.0547],[30.0385,-2.0592],[30.0394,-2.0689],[30.0272,-2.0639],[30.0193,-2.0742]]]}},{"type":"Feature","properties":{"district":"Nyamasheke","district_code":"RW-WE-NYS","province":"Western","agro_ecological_zone":"Highland (Congo-Nile)"},"geometry":{"type":"Polygon","coordinates":[[[29.3246,-2.3244],[29.3208,-2.3061],[29.3089,-2.2995],[29.311,-2.2929],[29.305,-2.2885],[29.3179,-2.2756],[29.3118,-2.2635],[29.3147,-2.2445],[29.3041,-2.2322],[29.3154,-2.2138],[29.3049,-2.2147],[29.2905,-2.2038],[29.2672,-2.1605],[29.2468,-2.1465],[29.1678,-2.1471],[29.1085,-2.2664],[29.0825,-2.2792],[29.0012,-2.2941],[28.9834,-2.3396],[28.9616,-2.3524],[28.9662,-2.366],[28.9621,-2.3731],[28.9729,-2.395],[28.9649,-2.4384],[28.9781,-2.4458],[28.9754,-2.4592],[28.9817,-2.4714],[28.9764,-2.4883],[29.0175,-2.5353],[29.0347,-2.5414],[29.0383,-2.5691],[29.045,-2.5623],[29.0484,-2.5413],[29.0737,-2.5327],[29.0807,-2.5185],[29.1008,-2.5204],[29.1227,-2.5053],[29.1193,-2.4781],[29.1275,-2.4877],[29.1518,-2.4952],[29.1729,-2.4805],[29.192,-2.4906],[29.2035,-2.4756],[29.215,-2.4821],[29.2409,-2.4726],[29.2735,-2.4917],[29.2772,-2.4875],[29.2647,-2.482],[29.2694,-2.4755],[29.2656,-2.4723],[29.2803,-2.4419],[29.3235,-2.4325],[29.3287,-2.4217],[29.3272,-2.4069],[29.3183,-2.3986],[29.344,-2.36],[29.3273,-2.3396],[29.3246,-2.3244]]]}}]}